GLOBALSTAR M057 [-]     
1 25943U 99058A   23278.81052775 -.00000038  00000+0  49557-3 0  9995
2 25943  51.9987 308.7424 0002744 171.0625 189.0274 12.24773317 90918
GLOBALSTAR M059 [-]     
1 25944U 99058B   23279.43304039 -.00000066  00000+0  25187-3 0  9992
2 25944  52.0007  83.7645 0000954 112.0235 284.3868 11.99953804 88391
GLOBALSTAR M056 [-]     
1 25945U 99058C   23278.85485769 -.00000060  00000+0  31759-3 0  9994
2 25945  51.9945 103.2283 0001610  61.6293  45.5490 12.04769936 87902
GLOBALSTAR M031 [-]     
1 25946U 99058D   23279.08985427 -.00000038  00000+0  53137-3 0  9996
2 25946  51.9987  32.0034 0001515  23.1117 148.1253 12.15995963 89344
GLOBALSTAR M039 [-]     
1 25961U 99062A   23279.01215203 -.00000074  00000+0  16579-3 0  9998
2 25961  51.9872 357.5553 0003129  61.9576 298.1607 12.62271094101929
GLOBALSTAR M034 [-]     
1 25962U 99062B   23279.46049023 -.00000053  00000+0  44340-3 0  9997
2 25962  51.9864 182.2749 0013897 314.3533 216.8539 11.79415808 65258
GLOBALSTAR M029 [-]     
1 25963U 99062C   23278.59394492 -.00000040  00000+0  56989-3 0  9992
2 25963  51.9825 334.6050 0002369 346.2246 169.6367 11.99868278 94678
GLOBALSTAR M061 [-]     
1 25964U 99062D   23279.46603191 -.00000052  00000+0  46064-3 0  9995
2 25964  51.9828 358.0856 0005711 236.9411 135.9749 11.76750905 48513
